[{"OBJECT_NAME":"COSMOS 1408 DEB","OBJECT_ID":"1982-092RU","EPOCH":"2026-03-04T04:43:22.022688","MEAN_MOTION":15.4670367,"ECCENTRICITY":0.00136163,"INCLINATION":82.5667,"RA_OF_ASC_NODE":334.9585,"ARG_OF_PERICENTER":279.1745,"MEAN_ANOMALY":80.7964,"EPHEMERIS_TYPE":0,"CLASSIFICATION_TYPE":"U","NORAD_CAT_ID":50032,"ELEMENT_SET_NO":999,"REV_AT_EPOCH":23862,"BSTAR":0.00015596327,"MEAN_MOTION_DOT":7.858e-5,"MEAN_MOTION_DDOT":0},{"OBJECT_NAME":"COSMOS 1408 DEB","OBJECT_ID":"1982-092SW","EPOCH":"2026-03-04T05:18:32.396256","MEAN_MOTION":15.70687079,"ECCENTRICITY":0.00146355,"INCLINATION":82.6149,"RA_OF_ASC_NODE":343.6566,"ARG_OF_PERICENTER":141.7251,"MEAN_ANOMALY":218.5054,"EPHEMERIS_TYPE":0,"CLASSIFICATION_TYPE":"U","NORAD_CAT_ID":50058,"ELEMENT_SET_NO":999,"REV_AT_EPOCH":24080,"BSTAR":0.00051490886,"MEAN_MOTION_DOT":0.00064339,"MEAN_MOTION_DDOT":0},{"OBJECT_NAME":"COSMOS 1408 DEB","OBJECT_ID":"1982-092ADS","EPOCH":"2026-03-04T05:13:54.074208","MEAN_MOTION":15.32394355,"ECCENTRICITY":0.01267262,"INCLINATION":82.1962,"RA_OF_ASC_NODE":130.4674,"ARG_OF_PERICENTER":273.6632,"MEAN_ANOMALY":85.0124,"EPHEMERIS_TYPE":0,"CLASSIFICATION_TYPE":"U","NORAD_CAT_ID":50404,"ELEMENT_SET_NO":999,"REV_AT_EPOCH":22433,"BSTAR":0.0049473582,"MEAN_MOTION_DOT":0.00203887,"MEAN_MOTION_DDOT":0},{"OBJECT_NAME":"COSMOS 1408 DEB","OBJECT_ID":"1982-092ALR","EPOCH":"2026-03-04T06:00:19.395936","MEAN_MOTION":15.61995233,"ECCENTRICITY":0.00229976,"INCLINATION":82.5723,"RA_OF_ASC_NODE":348.9917,"ARG_OF_PERICENTER":204.145,"MEAN_ANOMALY":155.8732,"EPHEMERIS_TYPE":0,"CLASSIFICATION_TYPE":"U","NORAD_CAT_ID":50621,"ELEMENT_SET_NO":999,"REV_AT_EPOCH":23520,"BSTAR":0.00054473083,"MEAN_MOTION_DOT":0.00048331,"MEAN_MOTION_DDOT":0}]
