COSMOS 1408 DEB         
1 50032U 82092RU  26063.19678267  .00007858  00000+0  15596-3 0  9990
2 50032  82.5667 334.9585 0013616 279.1745  80.7964 15.46703670238629
COSMOS 1408 DEB         
1 50058U 82092SW  26063.22120829  .00064339  00000+0  51491-3 0  9999
2 50058  82.6149 343.6566 0014635 141.7251 218.5054 15.70687079240802
COSMOS 1408 DEB         
1 50404U 82092ADS 26063.21798697  .00203887  00000+0  49474-2 0  9997
2 50404  82.1962 130.4674 0126726 273.6632  85.0124 15.32394355224335
COSMOS 1408 DEB         
1 50621U 82092ALR 26063.25022449  .00048331  00000+0  54473-3 0  9994
2 50621  82.5723 348.9917 0022997 204.1450 155.8732 15.61995233235206
